{
  "type": "FeatureCollection",
  "name": "aoi_mayurbhanj",
  "crs": {
    "type": "name",
    "properties": {
      "name": "urn:ogc:def:crs:OGC:1.3:CRS84"
    }
  },
  "features": [
    {
      "type": "Feature",
      "properties": {
        "district": "Mayurbhanj",
        "state": "Odisha",
        "jurisdiction_id": "dist_mayurbhanj_001"
      },
      "geometry": {
        "type": "Polygon",
        "coordinates": [
          [
            [85.65, 21.28],
            [87.22, 21.28],
            [87.22, 22.58],
            [85.65, 22.58],
            [85.65, 21.28]
          ]
        ]
      }
    }
  ]
}
